[{"OBJECT_NAME":"XINGYUN-2 01","OBJECT_ID":"2020-028A","EPOCH":"2026-03-09T23:27:57.512736","MEAN_MOTION":15.11323975,"ECCENTRICITY":0.00090563,"INCLINATION":97.4853,"RA_OF_ASC_NODE":63.3977,"ARG_OF_PERICENTER":174.572,"MEAN_ANOMALY":185.561,"EPHEMERIS_TYPE":0,"CLASSIFICATION_TYPE":"U","NORAD_CAT_ID":45602,"ELEMENT_SET_NO":999,"REV_AT_EPOCH":31985,"BSTAR":0.000253969,"MEAN_MOTION_DOT":4.22e-5,"MEAN_MOTION_DDOT":0},{"OBJECT_NAME":"STARLINK-4727","OBJECT_ID":"2022-111AG","EPOCH":"2026-03-09T19:20:16.456128","MEAN_MOTION":15.08872566,"ECCENTRICITY":0.00015008,"INCLINATION":53.2157,"RA_OF_ASC_NODE":248.6456,"ARG_OF_PERICENTER":56.796,"MEAN_ANOMALY":303.3176,"EPHEMERIS_TYPE":0,"CLASSIFICATION_TYPE":"U","NORAD_CAT_ID":53803,"ELEMENT_SET_NO":999,"REV_AT_EPOCH":19404,"BSTAR":0.00028072561,"MEAN_MOTION_DOT":4.186e-5,"MEAN_MOTION_DDOT":0}]
